CRE (WAAS/PRN 138)      
1 28868U 05036A   23028.50965745 -.00000075  00000+0  00000+0 0  9993
2 28868   1.1327  91.6177 0001130 256.1020 215.9239  1.00271794 63764
IOR-W (EGNOS/PRN 126)   
1 28899U 05044A   23027.63347609  .00000007  00000+0  00000+0 0  9996
2 28899   3.6818  39.3108 0002833 269.5938 109.6605  1.00271711 63125
QZS-1 (QZSS/PRN 183)    
1 37158U 10045A   23027.67863499 -.00000214  00000+0  00000+0 0  9996
2 37158  42.5767 130.3007 0762899 270.5761 104.6627  1.00249014 45343
GSAT-8 (GAGAN/PRN 127)  
1 37605U 11022A   23027.84683012  .00000084  00000+0  00000+0 0  9993
2 37605   0.0185  85.7949 0008210 190.7292 210.2376  1.00270848 40825
LUCH 5A (SDCM/PRN 140)  
1 37951U 11074B   23028.51437755 -.00000051  00000+0  00000+0 0  9995
2 37951   5.5868  93.5131 0002206 224.9942 161.2666  1.00267946 40808
SES-5 (EGNOS/PRN 136)   
1 38652U 12036A   23027.54988493  .00000032  00000+0  00000+0 0  9993
2 38652   0.0533 286.5696 0001833  10.9091  31.9856  1.00271364 32083
GSAT-10 (GAGAN/PRN 128) 
1 38779U 12051B   23027.85706568 -.00000166  00000+0  00000+0 0  9994
2 38779   0.0434 259.7007 0004265  14.5638 244.1036  1.00272830 37891
LUCH 5B (SDCM/PRN 125)  
1 38977U 12061A   23027.97063265 -.00000141  00000+0  00000+0 0  9991
2 38977   7.7782  60.9118 0000754 151.5599 247.5724  1.00271647 37787
ASTRA 5B (EGNOS/PRN 123)
1 39617U 14011B   23027.84212322  .00000153  00000+0  00000+0 0  9998
2 39617   0.0413 335.7202 0003656 329.1149 156.6256  1.00271395 32270
LUCH 5V (SDCM/PRN 141)  
1 39727U 14023A   23028.08729858 -.00000271  00000+0  00000+0 0  9999
2 39727   2.0419  77.3490 0002736 245.8978 289.9909  1.00273050550113
GSAT-15 (GAGAN/PRN 139) 
1 41028U 15065A   23028.08729858 -.00000258  00000+0  00000+0 0  9998
2 41028   0.0523 261.0104 0001500  11.0066 339.9576  1.00272645 26468
E 117 W B (WAAS/PRN 131)
1 41589U 16038B   23028.16245278 -.00000012  00000+0  00000+0 0  9997
2 41589   0.0108 215.1450 0000378 178.1357  35.3674  1.00271382 24318
SES-15 (WAAS/PRN 133)   
1 42709U 17026A   23027.95332705  .00000059  00000+0  00000+0 0  9998
2 42709   0.0176  12.7877 0000326 271.6087  56.5795  1.00270117 21797
QZS-2 (QZSS/PRN 184)    
1 42738U 17028A   23028.50749153 -.00000140  00000+0  00000+0 0  9995
2 42738  41.3982 260.9760 0751750 269.8909 280.7502  1.00274736 20748
QZS-3 (QZSS/PRN 189)    
1 42917U 17048A   23027.72981227 -.00000349  00000+0  00000+0 0  9990
2 42917   0.0741 229.3809 0001860  90.6526 196.4420  1.00273703 19866
QZS-4 (QZSS/PRN 185)    
1 42965U 17062A   23028.23799142 -.00000352  00000+0  00000+0 0  9993
2 42965  40.7089 359.2303 0750265 268.9125  82.3315  1.00293856 19410
GALAXY 30 (WAAS/PRN 135)
1 46114U 20056C   23028.49766491  .00000037  00000+0  00000+0 0  9998
2 46114   0.0177  85.1736 0002195 232.3458 224.1255  1.00273434  9012
